ONEWEB-0291             
1 49081U 21075G   25232.91165988 -.00000020  00000+0 -83582-4 0  9991
2 49081  87.9033  65.5956 0001561 101.3801 258.7506 13.17645478194066
ONEWEB-0293             
1 49082U 21075H   25232.78511525  .00000004  00000+0 -22509-4 0  9992
2 49082  87.9022  65.6527 0001606  87.9884 272.1431 13.17649668194073
ONEWEB-0294             
1 49083U 21075J   25232.87876534  .00000326  00000+0  87009-3 0  9998
2 49083  87.8865  50.3364 0001242  93.7710 266.3561 13.12442034195182
ONEWEB-0295             
1 49084U 21075K   25232.78425366  .00000045  00000+0  83077-4 0  9992
2 49084  87.9029  65.6542 0001688  99.8824 260.2498 13.17651048194037
ONEWEB-0296             
1 49085U 21075L   25232.78305897  .00000399  00000+0  10725-2 0  9999
2 49085  87.8853  50.3619 0001476 108.0973 252.0317 13.12443779195171
ONEWEB-0297             
1 49086U 21075M   25232.89011875 -.00000012  00000+0 -68734-4 0  9991
2 49086  87.8858  50.3789 0001809  93.1353 266.9982 13.12441633195798
ONEWEB-0298             
1 49087U 21075N   25232.78860284  .00000016  00000+0  86240-5 0  9991
2 49087  87.9021  65.6500 0001904  90.8464 269.2885 13.17650838194066
ONEWEB-0299             
1 49088U 21075P   25232.79016173  .00000019  00000+0  14989-4 0  9996
2 49088  87.9034  65.6037 0001908  93.6352 266.4998 13.17648544194040
